*******************************************************************************
 Revised: Dec 13, 2013            Neso    / (Neptune)                      813
             http://ssd.jpl.nasa.gov/sat_props.html  (physical properties)
             http://ssd.jpl.nasa.gov/sat_elem.html   (mean elements)

 Irregular Neptunian satellite trajectory.
*******************************************************************************
 
 
*******************************************************************************
Ephemeris / WWW_USER Wed Nov  1 05:41:10 2017 Pasadena, USA      / Horizons    
*******************************************************************************
Target body name: Neso (813)                      {source: nep086}
Center body name: Solar System Barycenter (0)     {source: DE431mx}
Center-site name: BODY CENTER
*******************************************************************************
Start time      : A.D. 2017-Jul-10 00:00:00.0000 TDB
Stop  time      : A.D. 2020-Aug-13 00:00:00.0000 TDB
Step-size       : 1440 minutes
*******************************************************************************
Center geodetic : 0.00000000,0.00000000,0.0000000 {E-lon(deg),Lat(deg),Alt(km)}
Center cylindric: 0.00000000,0.00000000,0.0000000 {E-lon(deg),Dxy(km),Dz(km)}
Center radii    : (undefined)                                                  
Output units    : KM-S                                                         
Output type     : GEOMETRIC cartesian states
Output format   : 3 (position, velocity, LT, range, range-rate)
Reference frame : ICRF/J2000.0                                                 
Coordinate systm: Ecliptic and Mean Equinox of Reference Epoch                 
*******************************************************************************
            JDTDB,            Calendar Date (TDB),                      X,                      Y,                      Z,                     VX,                     VY,                     VZ,                     LT,                     RG,                     RR,
**************************************************************************************************************************************************************************************************************************************************************************
$$SOE
2458840.500000000, A.D. 2019-Dec-23 00:00:00.0000,  4.312420958976510E+09, -9.391258165359974E+08, -1.246076312879689E+08,  1.109348383608404E+00,  5.537794041958382E+00, -2.263750381290091E-01,  1.472769865763204E+04,  4.415252981254809E+09, -8.799044483932628E-02,
2458841.500000000, A.D. 2019-Dec-24 00:00:00.0000,  4.312516785290452E+09, -9.386473466572194E+08, -1.246271868983942E+08,  1.108853320900034E+00,  5.537897583461353E+00, -2.263011303581499E-01,  1.472767331575891E+04,  4.415245383952374E+09, -8.787304146461671E-02,
2458842.500000000, A.D. 2019-Dec-25 00:00:00.0000,  4.312612568829133E+09, -9.381688678358155E+08, -1.246467361235080E+08,  1.108358215546769E+00,  5.538001047182721E+00, -2.262272299925565E-01,  1.472764800771792E+04,  4.415237796792557E+09, -8.775566195270011E-02,
2458843.500000000, A.D. 2019-Dec-26 00:00:00.0000,  4.312708309588871E+09, -9.376903800785061E+08, -1.246662789639500E+08,  1.107863067576649E+00,  5.538104433130419E+00, -2.261533370281337E-01,  1.472762273350219E+04,  4.415230219773301E+09, -8.763830630090716E-02,
2458844.500000000, A.D. 2019-Dec-27 00:00:00.0000,  4.312804007565984E+09, -9.372118833920102E+08, -1.246858154203596E+08,  1.107367877017696E+00,  5.538207741312363E+00, -2.260794514607836E-01,  1.472759749310485E+04,  4.415222652892542E+09, -8.752097450657023E-02,
2458845.500000000, A.D. 2019-Dec-28 00:00:00.0000,  4.312899662756794E+09, -9.367333777830467E+08, -1.247053454933755E+08,  1.106872643897918E+00,  5.538310971736465E+00, -2.260055732864132E-01,  1.472757228651903E+04,  4.415215096148219E+09, -8.740366656702722E-02,
2458846.500000000, A.D. 2019-Dec-29 00:00:00.0000,  4.312995275157624E+09, -9.362548632583334E+08, -1.247248691836362E+08,  1.106377368245306E+00,  5.538414124410612E+00, -2.259317025009284E-01,  1.472754711373784E+04,  4.415207549538271E+09, -8.728638247961609E-02,
2458847.500000000, A.D. 2019-Dec-30 00:00:00.0000,  4.313090844764803E+09, -9.357763398245875E+08, -1.247443864917802E+08,  1.105882050087832E+00,  5.538517199342690E+00, -2.258578391002373E-01,  1.472752197475441E+04,  4.415200013060639E+09, -8.716912224167976E-02,
2458848.500000000, A.D. 2019-Dec-31 00:00:00.0000,  4.313186371574657E+09, -9.352978074885257E+08, -1.247638974184453E+08,  1.105386689453455E+00,  5.538620196540567E+00, -2.257839830802488E-01,  1.472749686956188E+04,  4.415192486713263E+09, -8.705188585056509E-02,
2458849.500000000, A.D. 2020-Jan-01 00:00:00.0000,  4.313281855583518E+09, -9.348192662568638E+08, -1.247834019642690E+08,  1.104891286370117E+00,  5.538723116012097E+00, -2.257101344368744E-01,  1.472747179815337E+04,  4.415184970494078E+09, -8.693467330362030E-02,
2458850.500000000, A.D. 2020-Jan-02 00:00:00.0000,  4.313377296787720E+09, -9.343407161363170E+08, -1.248029001298883E+08,  1.104395840865741E+00,  5.538825957765128E+00, -2.256362931660252E-01,  1.472744676052200E+04,  4.415177464401028E+09, -8.681748459819746E-02,
2458851.500000000, A.D. 2020-Jan-03 00:00:00.0000,  4.313472695183599E+09, -9.338621571335999E+08, -1.248223919159403E+08,  1.103900352968236E+00,  5.538928721807488E+00, -2.255624592636161E-01,  1.472742175666091E+04,  4.415169968432053E+09, -8.670031973165183E-02,
2458852.500000000, A.D. 2020-Jan-04 00:00:00.0000,  4.313568050767492E+09, -9.333835892554266E+08, -1.248418773230613E+08,  1.103404822705494E+00,  5.539031408146998E+00, -2.254886327255605E-01,  1.472739678656323E+04,  4.415162482585092E+09, -8.658317870134297E-02,
2458853.500000000, A.D. 2020-Jan-05 00:00:00.0000,  4.313663363535742E+09, -9.329050125085100E+08, -1.248613563518872E+08,  1.102909250105390E+00,  5.539134016791468E+00, -2.254148135477765E-01,  1.472737185022208E+04,  4.415155006858086E+09, -8.646606150463181E-02,
2458854.500000000, A.D. 2020-Jan-06 00:00:00.0000,  4.313758633484693E+09, -9.324264268995624E+08, -1.248808290030540E+08,  1.102413635195785E+00,  5.539236547748690E+00, -2.253410017261812E-01,  1.472734694763061E+04,  4.415147541248978E+09, -8.634896813888236E-02,
2458855.500000000, A.D. 2020-Jan-07 00:00:00.0000,  4.313853860610687E+09, -9.319478324352962E+08, -1.249002952771972E+08,  1.101917978004520E+00,  5.539339001026447E+00, -2.252671972566949E-01,  1.472732207878194E+04,  4.415140085755706E+09, -8.623189860146475E-02,
2458856.500000000, A.D. 2020-Jan-08 00:00:00.0000,  4.313949044910074E+09, -9.314692291224220E+08, -1.249197551749517E+08,  1.101422278559423E+00,  5.539441376632514E+00, -2.251934001352387E-01,  1.472729724366920E+04,  4.415132640376213E+09, -8.611485288974886E-02,
2458857.500000000, A.D. 2020-Jan-09 00:00:00.0000,  4.314044186379206E+09, -9.309906169676507E+08, -1.249392086969522E+08,  1.100926536888304E+00,  5.539543674574647E+00, -2.251196103577366E-01,  1.472727244228552E+04,  4.415125205108440E+09, -8.599783100110973E-02,
2458858.500000000, A.D. 2020-Jan-10 00:00:00.0000,  4.314139285014433E+09, -9.305119959776920E+08, -1.249586558438329E+08,  1.100430753018957E+00,  5.539645894860594E+00, -2.250458279201115E-01,  1.472724767462405E+04,  4.415117779950329E+09, -8.588083293292538E-02,
2458859.500000000, A.D. 2020-Jan-11 00:00:00.0000,  4.314234340812113E+09, -9.300333661592550E+08, -1.249780966162280E+08,  1.099934926979160E+00,  5.539748037498091E+00, -2.249720528182919E-01,  1.472722294067793E+04,  4.415110364899824E+09, -8.576385868257613E-02,
2458860.500000000, A.D. 2020-Jan-12 00:00:00.0000,  4.314329353768601E+09, -9.295547275190483E+08, -1.249975310147710E+08,  1.099439058796674E+00,  5.539850102494860E+00, -2.248982850482046E-01,  1.472719824044027E+04,  4.415102959954865E+09, -8.564690824744677E-02,
2458861.500000000, A.D. 2020-Jan-13 00:00:00.0000,  4.314424323880260E+09, -9.290760800637798E+08, -1.250169590400953E+08,  1.098943148499245E+00,  5.539952089858616E+00, -2.248245246057807E-01,  1.472717357390423E+04,  4.415095565113393E+09, -8.552998162492532E-02,
2458862.500000000, A.D. 2020-Jan-14 00:00:00.0000,  4.314519251143450E+09, -9.285974238001564E+08, -1.250363806928338E+08,  1.098447196114603E+00,  5.540053999597059E+00, -2.247507714869523E-01,  1.472714894106293E+04,  4.415088180373353E+09, -8.541307881240180E-02,
2458863.500000000, A.D. 2020-Jan-15 00:00:00.0000,  4.314614135554538E+09, -9.281187587348849E+08, -1.250557959736191E+08,  1.097951201670459E+00,  5.540155831717875E+00, -2.246770256876531E-01,  1.472712434190953E+04,  4.415080805732689E+09, -8.529619980727035E-02,
2458864.500000000, A.D. 2020-Jan-16 00:00:00.0000,  4.314708977109889E+09, -9.276400848746707E+08, -1.250752048830833E+08,  1.097455165194511E+00,  5.540257586228740E+00, -2.246032872038171E-01,  1.472709977643714E+04,  4.415073441189342E+09, -8.517934460692758E-02,
2458865.500000000, A.D. 2020-Jan-17 00:00:00.0000,  4.314803775805874E+09, -9.271614022262193E+08, -1.250946074218585E+08,  1.096959086714334E+00,  5.540359263137328E+00, -2.245295560313909E-01,  1.472707524463893E+04,  4.415066086741255E+09, -8.506251320887973E-02,
2458866.500000000, A.D. 2020-Jan-18 00:00:00.0000,  4.314898531638865E+09, -9.266827107962353E+08, -1.251140035905761E+08,  1.096462966257748E+00,  5.540460862451289E+00, -2.244558321663239E-01,  1.472705074650802E+04,  4.415058742386374E+09, -8.494570561037719E-02,
2458867.500000000, A.D. 2020-Jan-19 00:00:00.0000,  4.314993244605235E+09, -9.262040105914223E+08, -1.251333933898672E+08,  1.095966803852396E+00,  5.540562384178268E+00, -2.243821156045560E-01,  1.472702628203756E+04,  4.415051408122641E+09, -8.482892180883177E-02,
